[{"OBJECT_NAME":"GAOFEN-9 03","OBJECT_ID":"2020-039A","EPOCH":"2026-03-09T21:55:15.121344","MEAN_MOTION":15.30529116,"ECCENTRICITY":0.0013094,"INCLINATION":97.5219,"RA_OF_ASC_NODE":201.2158,"ARG_OF_PERICENTER":77.4533,"MEAN_ANOMALY":282.8172,"EPHEMERIS_TYPE":0,"CLASSIFICATION_TYPE":"U","NORAD_CAT_ID":45794,"ELEMENT_SET_NO":999,"REV_AT_EPOCH":31856,"BSTAR":0.00039258132,"MEAN_MOTION_DOT":0.00011544,"MEAN_MOTION_DDOT":0},{"OBJECT_NAME":"STARLINK-36150","OBJECT_ID":"2025-294B","EPOCH":"2026-03-09T22:43:51.334752","MEAN_MOTION":15.27592931,"ECCENTRICITY":0.00015739,"INCLINATION":42.9987,"RA_OF_ASC_NODE":36.1864,"ARG_OF_PERICENTER":48.7834,"MEAN_ANOMALY":311.3153,"EPHEMERIS_TYPE":0,"CLASSIFICATION_TYPE":"U","NORAD_CAT_ID":67031,"ELEMENT_SET_NO":999,"REV_AT_EPOCH":1484,"BSTAR":0.00089319049,"MEAN_MOTION_DOT":0.00024408,"MEAN_MOTION_DDOT":0}]
